OBJECT_NAME,OBJECT_ID,EPOCH,MEAN_MOTION,ECCENTRICITY,INCLINATION,RA_OF_ASC_NODE,ARG_OF_PERICENTER,MEAN_ANOMALY,EPHEMERIS_TYPE,CLASSIFICATION_TYPE,NORAD_CAT_ID,ELEMENT_SET_NO,REV_AT_EPOCH,BSTAR,MEAN_MOTION_DOT,MEAN_MOTION_DDOT
STARLINK-6182,2023-083C,2026-06-02T19:14:00.076992,15.27576341,.00017796,43.0052,324.8354,275.1295,84.9354,0,U,56878,999,16464,.25026797E-4,.426E-5,0
STARLINK-5707,2023-083D,2026-06-05T04:00:03.000096,15.27579548,.0002215,43.0050,311.5215,263.0374,138.5994,0,U,56879,999,590,-.38124E-3,-.10739E-3,0
STARLINK-6177,2023-083E,2026-06-05T03:08:28.165056,15.27586185,.0001515,43.0020,311.3575,270.7404,89.3274,0,U,56880,999,16500,.65541E-4,.1542E-4,0
STARLINK-5853,2023-083F,2026-06-01T19:52:44.791680,15.27578217,.0001583,43.0034,330.4232,269.5557,90.5113,0,U,56881,999,16449,.4165646E-4,.884E-5,0
STARLINK-6175,2023-083G,2026-06-05T02:59:10.886784,15.27595817,.0000902,43.0014,311.3056,291.9791,68.0964,0,U,56882,999,16500,-.735E-4,-.2285E-4,0
STARLINK-6171,2023-083H,2026-06-05T02:48:07.085088,15.27578331,.000101,43.0011,311.2473,260.0432,100.0306,0,U,56883,999,16500,.22367E-4,.354E-5,0
STARLINK-5515,2023-083J,2026-06-01T20:01:47.477856,15.27571043,.00023465,43.0039,329.6102,254.0388,106.0205,0,U,56884,999,16450,.7444449E-5,-.58E-6,0
STARLINK-5095,2023-083K,2026-06-05T02:53:40.590816,15.27574675,.0001095,42.9978,311.2689,217.9506,142.1268,0,U,56885,999,16500,.19685E-4,.28E-5,0
STARLINK-5496,2023-083L,2026-06-02T22:47:59.779680,15.27551742,.00040381,43.0028,323.3657,245.4407,114.6024,0,U,56886,999,16467,-.24280923E-3,-.6934E-4,0
STARLINK-6180,2023-083M,2026-05-31T22:27:08.896896,15.27578747,.00017311,43.0015,339.1706,257.5626,102.5032,0,U,56887,999,16431,.34292746E-4,.681E-5,0
STARLINK-6181,2023-083N,2026-06-01T22:36:17.705376,15.27577431,.00011337,43.0040,332.9712,280.5348,79.5376,0,U,56888,999,16447,.33442747E-4,.658E-5,0
STARLINK-6169,2023-083P,2026-06-01T12:20:15.640224,15.27582427,.00016795,43.0032,331.5012,264.7057,95.3604,0,U,56889,999,16444,-.1606209E-5,-.306E-5,0
STARLINK-5528,2023-083Q,2026-06-05T03:04:03.654048,15.27579221,.0000651,42.9999,314.7359,291.0676,69.0106,0,U,56890,999,16496,.44856E-4,.973E-5,0
STARLINK-6213,2023-083R,2026-06-05T02:44:24.407232,15.27580545,.0002463,43.0066,311.2206,273.3619,86.6951,0,U,56891,999,16500,.14781E-4,.144E-5,0
STARLINK-6219,2023-083S,2026-06-01T19:53:54.024864,15.27561497,.00018308,43.0051,333.8401,275.4694,84.5949,0,U,56892,999,16445,.12090251E-3,.3064E-4,0
STARLINK-6216,2023-083T,2026-06-05T02:49:57.660672,15.27581834,.000138,43.0032,311.2546,270.8266,89.2427,0,U,56893,999,16512,.41356E-4,.876E-5,0
STARLINK-6144,2023-083U,2026-06-05T03:13:18.451776,15.27582326,.0001399,43.0019,314.7864,275.2906,84.7785,0,U,56894,999,16508,.91988E-4,.227E-4,0
STARLINK-6208,2023-083V,2026-06-01T18:14:10.741056,15.27576060,.00019205,43.0058,334.1818,272.3965,87.6667,0,U,56895,999,16444,.69077382E-4,.1639E-4,0
STARLINK-6202,2023-083W,2026-06-01T22:51:06.389856,15.27577710,.00015031,43.0050,333.0448,270.5809,89.4870,0,U,56896,999,16458,.597562E-6,-.246E-5,0
STARLINK-6200,2023-083X,2026-06-01T18:04:55.677216,15.27571863,.0001089,43.0037,334.1314,274.3013,85.7714,0,U,56897,999,16455,.24094701E-4,.401E-5,0
STARLINK-6205,2023-083Y,2026-06-01T18:02:38.729760,15.27578714,.00016761,43.0050,327.2957,271.3764,88.6896,0,U,56898,999,16463,.30413649E-4,.575E-5,0
STARLINK-6203,2023-083Z,2026-06-05T02:34:01.187616,15.27577965,.0001147,43.0022,307.7604,264.6698,95.4023,0,U,56899,999,16514,.16668E-4,.197E-5,0
STARLINK-6207,2023-083AA,2026-06-05T02:34:14.857824,15.27578726,.0001345,43.0046,297.3334,272.5509,87.5189,0,U,56900,999,16513,.24377E-4,.409E-5,0
STARLINK-6185,2023-083AB,2026-06-01T19:25:41.821248,15.27575608,.00018598,43.0060,326.8713,258.3709,101.6934,0,U,56901,999,16464,.54145015E-4,.1228E-4,0
STARLINK-6195,2023-083AC,2026-06-05T02:37:57.001728,15.27577006,.0001083,43.0038,297.3509,275.7347,84.3381,0,U,56902,999,16527,.97901E-5,.7E-7,0
STARLINK-6192,2023-083AD,2026-06-05T02:48:49.410720,15.27576865,.0001325,43.0038,307.8338,268.9609,91.1091,0,U,56903,999,16515,.1629E-4,.186E-5,0
STARLINK-6193,2023-083AE,2026-06-05T02:08:22.293888,15.27563699,.0001336,43.0032,297.1906,269.3675,90.7024,0,U,56904,999,16516,-.312E-4,-.112E-4,0
STARLINK-6183,2023-083AF,2026-06-05T02:50:41.337600,15.27576583,.0001804,43.0066,296.5647,257.6087,102.4563,0,U,56905,999,16517,-.22038E-4,-.869E-5,0
STARLINK-6098,2023-083AG,2026-06-01T18:59:48.959232,15.27575430,.00016213,43.0033,315.4456,262.9516,97.1152,0,U,56906,999,16466,.10120852E-3,.2523E-4,0
STARLINK-6110,2023-083AH,2026-06-01T22:02:34.636416,15.27574463,.00019781,43.0053,314.6831,275.3058,84.7568,0,U,56907,999,16479,.44353149E-4,.958E-5,0
