[ {"name": "STARLINK-6182", "line1": "1 56878U 23083C   26153.80138978  .00000426  00000+0  25027-4 0  9992", "line2": "2 56878  43.0052 324.8354 0001779 275.1295  84.9354 15.27576341164649"}, {"name": "STARLINK-5707", "line1": "1 56879U 23083D   26156.16670139 -.00010739  00000+0 -38124-3 0  9996", "line2": "2 56879  43.0050 311.5215 0002215 263.0374 138.5994 15.27579548  5908"}, {"name": "STARLINK-6177", "line1": "1 56880U 23083E   26156.13088154  .00001542  00000+0  65541-4 0  9999", "line2": "2 56880  43.0020 311.3575 0001515 270.7404  89.3274 15.27586185165002"}, {"name": "STARLINK-5853", "line1": "1 56881U 23083F   26152.82829620  .00000884  00000+0  41656-4 0  9992", "line2": "2 56881  43.0034 330.4232 0001583 269.5557  90.5113 15.27578217164495"}, {"name": "STARLINK-6175", "line1": "1 56882U 23083G   26156.12443156 -.00002285  00000+0 -73500-4 0  9998", "line2": "2 56882  43.0014 311.3056 0000902 291.9791  68.0964 15.27595817165006"}, {"name": "STARLINK-6171", "line1": "1 56883U 23083H   26156.11674867  .00000354  00000+0  22367-4 0  9991", "line2": "2 56883  43.0011 311.2473 0001010 260.0432 100.0306 15.27578331165005"}, {"name": "STARLINK-5515", "line1": "1 56884U 23083J   26152.83457729 -.00000058  00000+0  74444-5 0  9999", "line2": "2 56884  43.0039 329.6102 0002346 254.0388 106.0205 15.27571043164505"}, {"name": "STARLINK-5095", "line1": "1 56885U 23083K   26156.12060869  .00000280  00000+0  19685-4 0  9992", "line2": "2 56885  42.9978 311.2689 0001095 217.9506 142.1268 15.27574675165003"}, {"name": "STARLINK-5496", "line1": "1 56886U 23083L   26153.94999745 -.00006934  00000+0 -24281-3 0  9995", "line2": "2 56886  43.0028 323.3657 0004038 245.4407 114.6024 15.27551742164673"}, {"name": "STARLINK-6180", "line1": "1 56887U 23083M   26151.93551964  .00000681  00000+0  34293-4 0  9996", "line2": "2 56887  43.0015 339.1706 0001731 257.5626 102.5032 15.27578747164314"}, {"name": "STARLINK-6181", "line1": "1 56888U 23083N   26152.94187159  .00000658  00000+0  33443-4 0  9990", "line2": "2 56888  43.0040 332.9712 0001133 280.5348  79.5376 15.27577431164474"}, {"name": "STARLINK-6169", "line1": "1 56889U 23083P   26152.51406991 -.00000306  00000+0 -16062-5 0  9993", "line2": "2 56889  43.0032 331.5012 0001679 264.7057  95.3604 15.27582427164448"}, {"name": "STARLINK-5528", "line1": "1 56890U 23083Q   26156.12782007  .00000973  00000+0  44856-4 0  9990", "line2": "2 56890  42.9999 314.7359 0000651 291.0676  69.0106 15.27579221164966"}, {"name": "STARLINK-6213", "line1": "1 56891U 23083R   26156.11417138  .00000144  00000+0  14781-4 0  9994", "line2": "2 56891  43.0066 311.2206 0002463 273.3619  86.6951 15.27580545165000"}, {"name": "STARLINK-6219", "line1": "1 56892U 23083S   26152.82909751  .00003064  00000+0  12090-3 0  9990", "line2": "2 56892  43.0051 333.8401 0001830 275.4694  84.5949 15.27561497164452"}, {"name": "STARLINK-6216", "line1": "1 56893U 23083T   26156.11802848  .00000876  00000+0  41356-4 0  9992", "line2": "2 56893  43.0032 311.2546 0001380 270.8266  89.2427 15.27581834165121"}, {"name": "STARLINK-6144", "line1": "1 56894U 23083U   26156.13424134  .00002270  00000+0  91988-4 0  9999", "line2": "2 56894  43.0019 314.7864 0001399 275.2906  84.7785 15.27582326165087"}, {"name": "STARLINK-6208", "line1": "1 56895U 23083V   26152.75984654  .00001639  00000+0  69077-4 0  9994", "line2": "2 56895  43.0058 334.1818 0001920 272.3965  87.6667 15.27576060164447"}, {"name": "STARLINK-6202", "line1": "1 56896U 23083W   26152.95215729 -.00000246  00000+0  59756-6 0  9996", "line2": "2 56896  43.0050 333.0448 0001503 270.5809  89.4870 15.27577710164585"}, {"name": "STARLINK-6200", "line1": "1 56897U 23083X   26152.75342219  .00000401  00000+0  24095-4 0  9998", "line2": "2 56897  43.0037 334.1314 0001089 274.3013  85.7714 15.27571863164559"}, {"name": "STARLINK-6205", "line1": "1 56898U 23083Y   26152.75183715  .00000575  00000+0  30414-4 0  9997", "line2": "2 56898  43.0050 327.2957 0001676 271.3764  88.6896 15.27578714164637"}, {"name": "STARLINK-6203", "line1": "1 56899U 23083Z   26156.10695819  .00000197  00000+0  16668-4 0  9999", "line2": "2 56899  43.0022 307.7604 0001147 264.6698  95.4023 15.27577965165145"}, {"name": "STARLINK-6207", "line1": "1 56900U 23083AA  26156.10711641  .00000409  00000+0  24377-4 0  9996", "line2": "2 56900  43.0046 297.3334 0001345 272.5509  87.5189 15.27578726165137"}, {"name": "STARLINK-6185", "line1": "1 56901U 23083AB  26152.80951182  .00001228  00000+0  54145-4 0  9992", "line2": "2 56901  43.0060 326.8713 0001859 258.3709 101.6934 15.27575608164644"}, {"name": "STARLINK-6195", "line1": "1 56902U 23083AC  26156.10968752  .00000007  00000+0  97901-5 0  9993", "line2": "2 56902  43.0038 297.3509 0001083 275.7347  84.3381 15.27577006165272"}, {"name": "STARLINK-6192", "line1": "1 56903U 23083AD  26156.11723855  .00000186  00000+0  16290-4 0  9997", "line2": "2 56903  43.0038 307.8338 0001325 268.9609  91.1091 15.27576865165157"}, {"name": "STARLINK-6193", "line1": "1 56904U 23083AE  26156.08914692 -.00001120  00000+0 -31200-4 0  9994", "line2": "2 56904  43.0032 297.1906 0001336 269.3675  90.7024 15.27563699165167"}, {"name": "STARLINK-6183", "line1": "1 56905U 23083AF  26156.11853400 -.00000869  00000+0 -22038-4 0  9996", "line2": "2 56905  43.0066 296.5647 0001804 257.6087 102.4563 15.27576583165173"}, {"name": "STARLINK-6098", "line1": "1 56906U 23083AG  26152.79153888  .00002523  00000+0  10121-3 0  9996", "line2": "2 56906  43.0033 315.4456 0001621 262.9516  97.1152 15.27575430164667"}, {"name": "STARLINK-6110", "line1": "1 56907U 23083AH  26152.91845644  .00000958  00000+0  44353-4 0  9994", "line2": "2 56907  43.0053 314.6831 0001978 275.3058  84.7568 15.27574463164794"}]